[{"OBJECT_NAME":"TEVEL2-2","OBJECT_ID":"2025-052K","EPOCH":"2026-03-09T15:33:48.895776","MEAN_MOTION":15.30343745,"ECCENTRICITY":0.0004693,"INCLINATION":97.3987,"RA_OF_ASC_NODE":324.77,"ARG_OF_PERICENTER":105.793,"MEAN_ANOMALY":254.3828,"EPHEMERIS_TYPE":0,"CLASSIFICATION_TYPE":"U","NORAD_CAT_ID":63219,"ELEMENT_SET_NO":999,"REV_AT_EPOCH":5485,"BSTAR":0.00069428,"MEAN_MOTION_DOT":0.00020339,"MEAN_MOTION_DDOT":0},{"OBJECT_NAME":"STARLINK-35555","OBJECT_ID":"2025-259D","EPOCH":"2026-03-09T21:43:03.284832","MEAN_MOTION":15.27594706,"ECCENTRICITY":0.00024707,"INCLINATION":43.0001,"RA_OF_ASC_NODE":273.1798,"ARG_OF_PERICENTER":269.0113,"MEAN_ANOMALY":91.0456,"EPHEMERIS_TYPE":0,"CLASSIFICATION_TYPE":"U","NORAD_CAT_ID":66425,"ELEMENT_SET_NO":999,"REV_AT_EPOCH":1952,"BSTAR":0.00097245524,"MEAN_MOTION_DOT":0.00026607,"MEAN_MOTION_DDOT":0}]
